{
    "links": {
        "self": "http://www.neowsapp.com/rest/v1/neo/3842897?api_key=iIulBulltgU6a56xZRHN4H3l9WmuAYTsLGpBGhQ2"
    },
    "id": "3842897",
    "neo_reference_id": "3842897",
    "name": "(2019 LD6)",
    "designation": "2019 LD6",
    "nasa_jpl_url": "http://ssd.jpl.nasa.gov/sbdb.cgi?sstr=3842897",
    "absolute_magnitude_h": 23.4,
    "estimated_diameter": {
        "kilometers": {
            "estimated_diameter_min": 0.0555334912,
            "estimated_diameter_max": 0.1241766613
        },
        "meters": {
            "estimated_diameter_min": 55.5334911581,
            "estimated_diameter_max": 124.1766612574
        },
        "miles": {
            "estimated_diameter_min": 0.0345069009,
            "estimated_diameter_max": 0.0771597762
        },
        "feet": {
            "estimated_diameter_min": 182.1964991311,
            "estimated_diameter_max": 407.4037573197
        }
    },
    "is_potentially_hazardous_asteroid": false,
    "close_approach_data": [
        {
            "close_approach_date": "2019-06-16",
            "close_approach_date_full": "2019-Jun-16 16:35",
            "epoch_date_close_approach": 1560702900000,
            "relative_velocity": {
                "kilometers_per_second": "19.6428737185",
                "kilometers_per_hour": "70714.345386546",
                "miles_per_hour": "43939.1442208791"
            },
            "miss_distance": {
                "astronomical": "0.0705634666",
                "lunar": "27.4491885074",
                "kilometers": "10556144.303176142",
                "miles": "6559283.9119570796"
            },
            "orbiting_body": "Earth"
        },
        {
            "close_approach_date": "2020-06-15",
            "close_approach_date_full": "2020-Jun-15 08:41",
            "epoch_date_close_approach": 1592210460000,
            "relative_velocity": {
                "kilometers_per_second": "16.1628020931",
                "kilometers_per_hour": "58186.0875351488",
                "miles_per_hour": "36154.5720020485"
            },
            "miss_distance": {
                "astronomical": "0.4388681237",
                "lunar": "170.7197001193",
                "kilometers": "65653736.516416519",
                "miles": "40795340.1662412022"
            },
            "orbiting_body": "Earth"
        }
    ],
    "orbital_data": {
        "orbit_id": "2",
        "orbit_determination_date": "2019-07-27 14:02:16",
        "first_observation_date": "2019-06-11",
        "last_observation_date": "2019-06-13",
        "data_arc_in_days": 2,
        "observations_used": 19,
        "orbit_uncertainty": "9",
        "minimum_orbit_intersection": ".0496476",
        "jupiter_tisserand_invariant": "5.634",
        "epoch_osculation": "2458646.5",
        "eccentricity": ".3200911787486157",
        "semi_major_axis": "1.057568569842771",
        "inclination": "33.25862688556627",
        "ascending_node_longitude": "83.93780724556828",
        "orbital_period": "397.247552378042",
        "perihelion_distance": ".7190501997143104",
        "perihelion_argument": "291.3912427160388",
        "aphelion_distance": "1.396086939971231",
        "perihelion_time": "2458728.406187675058",
        "mean_anomaly": "285.7736708847983",
        "mean_motion": ".906235917238339",
        "equinox": "J2000",
        "orbit_class": {
            "orbit_class_type": "APO",
            "orbit_class_description": "Near-Earth asteroid orbits which cross the Earth’s orbit similar to that of 1862 Apollo",
            "orbit_class_range": "a (semi-major axis) > 1.0 AU; q (perihelion) < 1.017 AU"
        }
    },
    "is_sentry_object": false
}